{
  "type": "FeatureCollection",
  "features": [
    {
      "type": "Feature",
      "properties": {
        "norad_id": 34070,
        "name": "COSMOS 2251 DEB",
        "group": "cosmos-2251-debris",
        "lat": -51.45058675447067,
        "lon": -42.87079633104734,
        "alt_km": 632.0518230970947,
        "timestamp": "2025-12-12T20:43:07.429442+00:00",
        "meta_object_name": "COSMOS 2251 DEB",
        "meta_object_id": "1993-036KH",
        "meta_epoch": "2025-12-11T08:00:44.093088",
        "meta_mean_motion": 14.76951736,
        "meta_eccentricity": 0.00187517,
        "meta_inclination": 74.0005,
        "meta_ra_of_asc_node": 119.0276,
        "meta_arg_of_pericenter": 234.7279,
        "meta_mean_anomaly": 150.6467,
        "meta_ephemeris_type": 0,
        "meta_classification_type": "U",
        "meta_norad_cat_id": 34070,
        "meta_element_set_no": 999,
        "meta_rev_at_epoch": 88590,
        "meta_bstar": 0.0054241903,
        "meta_mean_motion_dot": 0.00038489,
        "meta_mean_motion_ddot": 0,
        "tle_line1": "1 34070U 93036KH  25345.33384367  .00038489  00000+0  54242-2 0  9991",
        "tle_line2": "2 34070  74.0005 119.0276 0018751 234.7279 150.6467 14.76951736885902"
      },
      "geometry": {
        "type": "Point",
        "coordinates": [
          -42.87079633104734,
          -51.45058675447067
        ]
      }
    },
    {
      "type": "Feature",
      "properties": {
        "norad_id": 34114,
        "name": "COSMOS 2251 DEB",
        "group": "cosmos-2251-debris",
        "lat": 67.29432890607727,
        "lon": 86.6826540237912,
        "alt_km": 670.4650157125398,
        "timestamp": "2025-12-12T20:43:07.429453+00:00",
        "meta_object_name": "COSMOS 2251 DEB",
        "meta_object_id": "1993-036KK",
        "meta_epoch": "2025-12-12T05:50:56.200992",
        "meta_mean_motion": 14.56372553,
        "meta_eccentricity": 0.00474315,
        "meta_inclination": 74.059,
        "meta_ra_of_asc_node": 44.7709,
        "meta_arg_of_pericenter": 39.7512,
        "meta_mean_anomaly": 26.5168,
        "meta_ephemeris_type": 0,
        "meta_classification_type": "U",
        "meta_norad_cat_id": 34114,
        "meta_element_set_no": 999,
        "meta_rev_at_epoch": 87794,
        "meta_bstar": 0.0025875181,
        "meta_mean_motion_dot": 0.00011645,
        "meta_mean_motion_ddot": 0,
        "tle_line1": "1 34114U 93036KK  25346.24370603  .00011645  00000+0  25875-2 0  9994",
        "tle_line2": "2 34114  74.0590  44.7709 0047431  39.7512  26.5168 14.56372553877941"
      },
      "geometry": {
        "type": "Point",
        "coordinates": [
          86.6826540237912,
          67.29432890607727
        ]
      }
    },
    {
      "type": "Feature",
      "properties": {
        "norad_id": 34115,
        "name": "COSMOS 2251 DEB",
        "group": "cosmos-2251-debris",
        "lat": -16.183647145656046,
        "lon": 66.47364955703868,
        "alt_km": 648.6188055677376,
        "timestamp": "2025-12-12T20:43:07.429463+00:00",
        "meta_object_name": "COSMOS 2251 DEB",
        "meta_object_id": "1993-036KL",
        "meta_epoch": "2025-12-12T03:36:22.211712",
        "meta_mean_motion": 14.79475169,
        "meta_eccentricity": 0.00285045,
        "meta_inclination": 74.006,
        "meta_ra_of_asc_node": 243.104,
        "meta_arg_of_pericenter": 66.9041,
        "meta_mean_anomaly": 293.5135,
        "meta_ephemeris_type": 0,
        "meta_classification_type": "U",
        "meta_norad_cat_id": 34115,
        "meta_element_set_no": 999,
        "meta_rev_at_epoch": 89403,
        "meta_bstar": 0.0015384357,
        "meta_mean_motion_dot": 0.0001156,
        "meta_mean_motion_ddot": 0,
        "tle_line1": "1 34115U 93036KL  25346.15025708  .00011560  00000+0  15384-2 0  9998",
        "tle_line2": "2 34115  74.0060 243.1040 0028504  66.9041 293.5135 14.79475169894037"
      },
      "geometry": {
        "type": "Point",
        "coordinates": [
          66.47364955703868,
          -16.183647145656046
        ]
      }
    },
    {
      "type": "Feature",
      "properties": {
        "norad_id": 34116,
        "name": "COSMOS 2251 DEB",
        "group": "cosmos-2251-debris",
        "lat": 30.609609685221674,
        "lon": -7.203755417788456,
        "alt_km": 716.9543783238714,
        "timestamp": "2025-12-12T20:43:07.429473+00:00",
        "meta_object_name": "COSMOS 2251 DEB",
        "meta_object_id": "1993-036KM",
        "meta_epoch": "2025-12-12T07:38:41.596800",
        "meta_mean_motion": 14.52970966,
        "meta_eccentricity": 0.00119981,
        "meta_inclination": 74.0404,
        "meta_ra_of_asc_node": 183.5708,
        "meta_arg_of_pericenter": 259.7149,
        "meta_mean_anomaly": 280.1129,
        "meta_ephemeris_type": 0,
        "meta_classification_type": "U",
        "meta_norad_cat_id": 34116,
        "meta_element_set_no": 999,
        "meta_rev_at_epoch": 88480,
        "meta_bstar": 0.0011047387,
        "meta_mean_motion_dot": 4.535e-05,
        "meta_mean_motion_ddot": 0,
        "tle_line1": "1 34116U 93036KM  25346.31853700  .00004535  00000+0  11047-2 0  9994",
        "tle_line2": "2 34116  74.0404 183.5708 0011998 259.7149 280.1129 14.52970966884803"
      },
      "geometry": {
        "type": "Point",
        "coordinates": [
          -7.203755417788456,
          30.609609685221674
        ]
      }
    },
    {
      "type": "Feature",
      "properties": {
        "norad_id": 34117,
        "name": "COSMOS 2251 DEB",
        "group": "cosmos-2251-debris",
        "lat": -29.781738387673624,
        "lon": -25.824439228251013,
        "alt_km": 764.4868865512481,
        "timestamp": "2025-12-12T20:43:07.429484+00:00",
        "meta_object_name": "COSMOS 2251 DEB",
        "meta_object_id": "1993-036KN",
        "meta_epoch": "2025-12-11T23:11:14.007840",
        "meta_mean_motion": 14.40006217,
        "meta_eccentricity": 0.0054508,
        "meta_inclination": 74.0405,
        "meta_ra_of_asc_node": 345.2579,
        "meta_arg_of_pericenter": 61.8578,
        "meta_mean_anomaly": 298.807,
        "meta_ephemeris_type": 0,
        "meta_classification_type": "U",
        "meta_norad_cat_id": 34117,
        "meta_element_set_no": 999,
        "meta_rev_at_epoch": 88112,
        "meta_bstar": 0.0010312,
        "meta_mean_motion_dot": 3.281e-05,
        "meta_mean_motion_ddot": 0,
        "tle_line1": "1 34117U 93036KN  25345.96613435  .00003281  00000+0  10312-2 0  9995",
        "tle_line2": "2 34117  74.0405 345.2579 0054508  61.8578 298.8070 14.40006217881129"
      },
      "geometry": {
        "type": "Point",
        "coordinates": [
          -25.824439228251013,
          -29.781738387673624
        ]
      }
    },
    {
      "type": "Feature",
      "properties": {
        "norad_id": 34118,
        "name": "COSMOS 2251 DEB",
        "group": "cosmos-2251-debris",
        "lat": 59.90891446552573,
        "lon": -81.1604879377525,
        "alt_km": 539.2153219674074,
        "timestamp": "2025-12-12T20:43:07.429494+00:00",
        "meta_object_name": "COSMOS 2251 DEB",
        "meta_object_id": "1993-036KP",
        "meta_epoch": "2025-12-11T20:37:53.753088",
        "meta_mean_motion": 14.93897498,
        "meta_eccentricity": 0.0059871,
        "meta_inclination": 73.9524,
        "meta_ra_of_asc_node": 251.0857,
        "meta_arg_of_pericenter": 81.6977,
        "meta_mean_anomaly": 347.3453,
        "meta_ephemeris_type": 0,
        "meta_classification_type": "U",
        "meta_norad_cat_id": 34118,
        "meta_element_set_no": 999,
        "meta_rev_at_epoch": 89163,
        "meta_bstar": 0.0026512,
        "meta_mean_motion_dot": 0.00029291,
        "meta_mean_motion_ddot": 0,
        "tle_line1": "1 34118U 93036KP  25345.85964992  .00029291  00000+0  26512-2 0  9999",
        "tle_line2": "2 34118  73.9524 251.0857 0059871  81.6977 347.3453 14.93897498891633"
      },
      "geometry": {
        "type": "Point",
        "coordinates": [
          -81.1604879377525,
          59.90891446552573
        ]
      }
    },
    {
      "type": "Feature",
      "properties": {
        "norad_id": 34120,
        "name": "COSMOS 2251 DEB",
        "group": "cosmos-2251-debris",
        "lat": 65.59378513643884,
        "lon": -104.74311837592242,
        "alt_km": 773.8668281009541,
        "timestamp": "2025-12-12T20:43:07.429504+00:00",
        "meta_object_name": "COSMOS 2251 DEB",
        "meta_object_id": "1993-036KR",
        "meta_epoch": "2025-12-12T02:12:39.792672",
        "meta_mean_motion": 13.98682417,
        "meta_eccentricity": 0.01819321,
        "meta_inclination": 73.9913,
        "meta_ra_of_asc_node": 217.3425,
        "meta_arg_of_pericenter": 45.1678,
        "meta_mean_anomaly": 103.7932,
        "meta_ephemeris_type": 0,
        "meta_classification_type": "U",
        "meta_norad_cat_id": 34120,
        "meta_element_set_no": 999,
        "meta_rev_at_epoch": 85971,
        "meta_bstar": 0.0004839817,
        "meta_mean_motion_dot": 7.78e-06,
        "meta_mean_motion_ddot": 0,
        "tle_line1": "1 34120U 93036KR  25346.09212723  .00000778  00000+0  48398-3 0  9993",
        "tle_line2": "2 34120  73.9913 217.3425 0181932  45.1678 103.7932 13.98682417859717"
      },
      "geometry": {
        "type": "Point",
        "coordinates": [
          -104.74311837592242,
          65.59378513643884
        ]
      }
    }
  ]
}